IRIDIUM 166             
1 43570U 18061B   23271.62855154  .00000162  00000+0  50651-4 0  9995
2 43570  86.3924 111.5873 0001893  83.7294 276.4117 14.34215433271135
IRIDIUM 158             
1 43571U 18061C   23271.59683569  .00000170  00000+0  53613-4 0  9991
2 43571  86.3922 111.6093 0001813  94.1211 266.0192 14.34215848271099
IRIDIUM 165             
1 43572U 18061D   23271.62220613  .00000152  00000+0  47064-4 0  9996
2 43572  86.3925 111.6264 0001780  94.6450 265.4949 14.34214760271125
IRIDIUM 155             
1 43573U 18061E   23271.65392161  .00000170  00000+0  53612-4 0  9994
2 43573  86.3922 111.5309 0002197  80.6476 279.4968 14.34215277271094
IRIDIUM 154             
1 43574U 18061F   23271.98373105  .00000146  00000+0  44899-4 0  9998
2 43574  86.3926 111.4781 0002277  92.5881 267.5575 14.34215206271198
IRIDIUM 163             
1 43575U 18061G   23271.61585447  .00000150  00000+0  46386-4 0  9991
2 43575  86.3922 111.5782 0002094  89.3083 270.8352 14.34217686271118
IRIDIUM 156             
1 43576U 18061H   23271.66026435  .00000156  00000+0  48480-4 0  9997
2 43576  86.3923 111.5655 0001887  83.1439 276.9971 14.34215777271118
IRIDIUM 164             
1 43577U 18061J   23271.92030754  .00000147  00000+0  45337-4 0  9994
2 43577  86.3924 111.4818 0001935  90.4405 269.7012 14.34214879271194
